CCSDS_OMM_VERS = 2.0
CREATION_DATE  = 
ORIGINATOR     = 

OBJECT_NAME    = STARLINK-36475
OBJECT_ID      = 2026-003S
CENTER_NAME    = EARTH
REF_FRAME      = TEME
TIME_SYSTEM    = UTC
MEAN_ELEMENT_THEORY = SGP/SGP4

EPOCH          = 2026-01-18T22:00:03.000096
MEAN_MOTION    = 15.89549577
ECCENTRICITY   = .00016117
INCLINATION    = 42.9985
RA_OF_ASC_NODE = 155.1721
ARG_OF_PERICENTER = 280.1234
MEAN_ANOMALY   = 9.9791

EPHEMERIS_TYPE = 0
CLASSIFICATION_TYPE = U
NORAD_CAT_ID   = 67350
ELEMENT_SET_NO = 999
REV_AT_EPOCH   = 266
BSTAR          = -.53581259E-2
MEAN_MOTION_DOT = -.1421475E-1
MEAN_MOTION_DDOT = 0

CCSDS_OMM_VERS = 2.0
CREATION_DATE  = 
ORIGINATOR     = 

OBJECT_NAME    = STARLINK-36478
OBJECT_ID      = 2026-003T
CENTER_NAME    = EARTH
REF_FRAME      = TEME
TIME_SYSTEM    = UTC
MEAN_ELEMENT_THEORY = SGP/SGP4

EPOCH          = 2026-01-18T22:00:03.000096
MEAN_MOTION    = 15.89381831
ECCENTRICITY   = .00012947
INCLINATION    = 42.9983
RA_OF_ASC_NODE = 155.1674
ARG_OF_PERICENTER = 302.5765
MEAN_ANOMALY   = 349.3988

EPHEMERIS_TYPE = 0
CLASSIFICATION_TYPE = U
NORAD_CAT_ID   = 67351
ELEMENT_SET_NO = 999
REV_AT_EPOCH   = 266
BSTAR          = .30464959E-2
MEAN_MOTION_DOT = .1031634E-1
MEAN_MOTION_DDOT = 0

CCSDS_OMM_VERS = 2.0
CREATION_DATE  = 
ORIGINATOR     = 

OBJECT_NAME    = STARLINK-36479
OBJECT_ID      = 2026-003U
CENTER_NAME    = EARTH
REF_FRAME      = TEME
TIME_SYSTEM    = UTC
MEAN_ELEMENT_THEORY = SGP/SGP4

EPOCH          = 2026-01-18T22:00:03.000096
MEAN_MOTION    = 15.89636512
ECCENTRICITY   = .00016335
INCLINATION    = 42.9986
RA_OF_ASC_NODE = 155.1624
ARG_OF_PERICENTER = 273.6674
MEAN_ANOMALY   = 20.3248

EPHEMERIS_TYPE = 0
CLASSIFICATION_TYPE = U
NORAD_CAT_ID   = 67352
ELEMENT_SET_NO = 999
REV_AT_EPOCH   = 267
BSTAR          = -.54747992E-2
MEAN_MOTION_DOT = -.1453933E-1
MEAN_MOTION_DDOT = 0

CCSDS_OMM_VERS = 2.0
CREATION_DATE  = 
ORIGINATOR     = 

OBJECT_NAME    = STARLINK-36474
OBJECT_ID      = 2026-003V
CENTER_NAME    = EARTH
REF_FRAME      = TEME
TIME_SYSTEM    = UTC
MEAN_ELEMENT_THEORY = SGP/SGP4

EPOCH          = 2026-01-18T22:00:03.000096
MEAN_MOTION    = 15.89677736
ECCENTRICITY   = .00014491
INCLINATION    = 42.9984
RA_OF_ASC_NODE = 155.1568
ARG_OF_PERICENTER = 269.7120
MEAN_ANOMALY   = 26.6386

EPHEMERIS_TYPE = 0
CLASSIFICATION_TYPE = U
NORAD_CAT_ID   = 67353
ELEMENT_SET_NO = 999
REV_AT_EPOCH   = 267
BSTAR          = -.5570243E-2
MEAN_MOTION_DOT = -.1478347E-1
MEAN_MOTION_DDOT = 0

CCSDS_OMM_VERS = 2.0
CREATION_DATE  = 
ORIGINATOR     = 

OBJECT_NAME    = STARLINK-36448
OBJECT_ID      = 2026-003W
CENTER_NAME    = EARTH
REF_FRAME      = TEME
TIME_SYSTEM    = UTC
MEAN_ELEMENT_THEORY = SGP/SGP4

EPOCH          = 2026-01-18T22:00:03.000096
MEAN_MOTION    = 15.89795106
ECCENTRICITY   = .00016731
INCLINATION    = 42.9986
RA_OF_ASC_NODE = 155.1398
ARG_OF_PERICENTER = 270.4796
MEAN_ANOMALY   = 32.4407

EPHEMERIS_TYPE = 0
CLASSIFICATION_TYPE = U
NORAD_CAT_ID   = 67354
ELEMENT_SET_NO = 999
REV_AT_EPOCH   = 267
BSTAR          = -.5856093E-2
MEAN_MOTION_DOT = -.1585567E-1
MEAN_MOTION_DDOT = 0

CCSDS_OMM_VERS = 2.0
CREATION_DATE  = 
ORIGINATOR     = 

OBJECT_NAME    = STARLINK-36477
OBJECT_ID      = 2026-003X
CENTER_NAME    = EARTH
REF_FRAME      = TEME
TIME_SYSTEM    = UTC
MEAN_ELEMENT_THEORY = SGP/SGP4

EPOCH          = 2026-01-18T22:00:03.000096
MEAN_MOTION    = 15.89721499
ECCENTRICITY   = .00016849
INCLINATION    = 42.9986
RA_OF_ASC_NODE = 155.1502
ARG_OF_PERICENTER = 277.7732
MEAN_ANOMALY   = 21.1497

EPHEMERIS_TYPE = 0
CLASSIFICATION_TYPE = U
NORAD_CAT_ID   = 67355
ELEMENT_SET_NO = 999
REV_AT_EPOCH   = 266
BSTAR          = -.57381958E-2
MEAN_MOTION_DOT = -.1519765E-1
MEAN_MOTION_DDOT = 0

CCSDS_OMM_VERS = 2.0
CREATION_DATE  = 
ORIGINATOR     = 

OBJECT_NAME    = STARLINK-36429
OBJECT_ID      = 2026-003Y
CENTER_NAME    = EARTH
REF_FRAME      = TEME
TIME_SYSTEM    = UTC
MEAN_ELEMENT_THEORY = SGP/SGP4

EPOCH          = 2026-01-18T22:00:03.000096
MEAN_MOTION    = 15.89757330
ECCENTRICITY   = .00017021
INCLINATION    = 42.9987
RA_OF_ASC_NODE = 155.1449
ARG_OF_PERICENTER = 276.8144
MEAN_ANOMALY   = 24.1523

EPHEMERIS_TYPE = 0
CLASSIFICATION_TYPE = U
NORAD_CAT_ID   = 67356
ELEMENT_SET_NO = 999
REV_AT_EPOCH   = 266
BSTAR          = -.5796913E-2
MEAN_MOTION_DOT = -.1568821E-1
MEAN_MOTION_DDOT = 0

CCSDS_OMM_VERS = 2.0
CREATION_DATE  = 
ORIGINATOR     = 

OBJECT_NAME    = STARLINK-36456
OBJECT_ID      = 2026-003Z
CENTER_NAME    = EARTH
REF_FRAME      = TEME
TIME_SYSTEM    = UTC
MEAN_ELEMENT_THEORY = SGP/SGP4

EPOCH          = 2026-01-18T22:00:03.000096
MEAN_MOTION    = 15.89828627
ECCENTRICITY   = .00015742
INCLINATION    = 42.9985
RA_OF_ASC_NODE = 155.1337
ARG_OF_PERICENTER = 278.6453
MEAN_ANOMALY   = 26.6285

EPHEMERIS_TYPE = 0
CLASSIFICATION_TYPE = U
NORAD_CAT_ID   = 67357
ELEMENT_SET_NO = 999
REV_AT_EPOCH   = 267
BSTAR          = -.59571716E-2
MEAN_MOTION_DOT = -.161188E-1
MEAN_MOTION_DDOT = 0

CCSDS_OMM_VERS = 2.0
CREATION_DATE  = 
ORIGINATOR     = 

OBJECT_NAME    = STARLINK-36466
OBJECT_ID      = 2026-003AA
CENTER_NAME    = EARTH
REF_FRAME      = TEME
TIME_SYSTEM    = UTC
MEAN_ELEMENT_THEORY = SGP/SGP4

EPOCH          = 2026-01-18T22:00:03.000096
MEAN_MOTION    = 15.89851993
ECCENTRICITY   = .00015592
INCLINATION    = 42.9986
RA_OF_ASC_NODE = 155.1271
ARG_OF_PERICENTER = 273.9606
MEAN_ANOMALY   = 33.8805

EPHEMERIS_TYPE = 0
CLASSIFICATION_TYPE = U
NORAD_CAT_ID   = 67358
ELEMENT_SET_NO = 999
REV_AT_EPOCH   = 267
BSTAR          = -.60289927E-2
MEAN_MOTION_DOT = -.1630564E-1
MEAN_MOTION_DDOT = 0

CCSDS_OMM_VERS = 2.0
CREATION_DATE  = 
ORIGINATOR     = 

OBJECT_NAME    = STARLINK-36499
OBJECT_ID      = 2026-003AB
CENTER_NAME    = EARTH
REF_FRAME      = TEME
TIME_SYSTEM    = UTC
MEAN_ELEMENT_THEORY = SGP/SGP4

EPOCH          = 2026-01-18T22:00:03.000096
MEAN_MOTION    = 15.89879939
ECCENTRICITY   = .00017924
INCLINATION    = 42.9986
RA_OF_ASC_NODE = 155.1218
ARG_OF_PERICENTER = 276.2287
MEAN_ANOMALY   = 33.6788

EPHEMERIS_TYPE = 0
CLASSIFICATION_TYPE = U
NORAD_CAT_ID   = 67359
ELEMENT_SET_NO = 999
REV_AT_EPOCH   = 267
BSTAR          = -.60610483E-2
MEAN_MOTION_DOT = -.1640423E-1
MEAN_MOTION_DDOT = 0

CCSDS_OMM_VERS = 2.0
CREATION_DATE  = 
ORIGINATOR     = 

OBJECT_NAME    = STARLINK-36469
OBJECT_ID      = 2026-003AC
CENTER_NAME    = EARTH
REF_FRAME      = TEME
TIME_SYSTEM    = UTC
MEAN_ELEMENT_THEORY = SGP/SGP4

EPOCH          = 2026-01-18T22:00:03.000096
MEAN_MOTION    = 15.89898199
ECCENTRICITY   = .00017682
INCLINATION    = 42.9985
RA_OF_ASC_NODE = 155.1155
ARG_OF_PERICENTER = 275.7158
MEAN_ANOMALY   = 36.7167

EPHEMERIS_TYPE = 0
CLASSIFICATION_TYPE = U
NORAD_CAT_ID   = 67360
ELEMENT_SET_NO = 999
REV_AT_EPOCH   = 267
BSTAR          = -.6104131E-2
MEAN_MOTION_DOT = -.1651922E-1
MEAN_MOTION_DDOT = 0

CCSDS_OMM_VERS = 2.0
CREATION_DATE  = 
ORIGINATOR     = 

OBJECT_NAME    = STARLINK-35306
OBJECT_ID      = 2026-003AD
CENTER_NAME    = EARTH
REF_FRAME      = TEME
TIME_SYSTEM    = UTC
MEAN_ELEMENT_THEORY = SGP/SGP4

EPOCH          = 2026-01-18T22:00:03.000096
MEAN_MOTION    = 15.89922732
ECCENTRICITY   = .00017155
INCLINATION    = 42.9983
RA_OF_ASC_NODE = 155.1103
ARG_OF_PERICENTER = 276.4982
MEAN_ANOMALY   = 37.9289

EPHEMERIS_TYPE = 0
CLASSIFICATION_TYPE = U
NORAD_CAT_ID   = 67361
ELEMENT_SET_NO = 999
REV_AT_EPOCH   = 261
BSTAR          = -.60985566E-2
MEAN_MOTION_DOT = -.1652377E-1
MEAN_MOTION_DDOT = 0

