STARLINK-36475          
1 67350U 26003S   26018.91670139 -.01421475  00000+0 -53581-2 0  9994
2 67350  42.9985 155.1721 0001611 280.1234   9.9791 15.89549577  2660
STARLINK-36478          
1 67351U 26003T   26018.91670139  .01031634  00000+0  30465-2 0  9993
2 67351  42.9983 155.1674 0001294 302.5765 349.3988 15.89381831  2667
STARLINK-36479          
1 67352U 26003U   26018.91670139 -.01453933  00000+0 -54748-2 0  9996
2 67352  42.9986 155.1624 0001633 273.6674  20.3248 15.89636512  2675
STARLINK-36474          
1 67353U 26003V   26018.91670139 -.01478347  00000+0 -55702-2 0  9994
2 67353  42.9984 155.1568 0001449 269.7120  26.6386 15.89677736  2673
STARLINK-36448          
1 67354U 26003W   26018.91670139 -.01585567  00000+0 -58561-2 0  9994
2 67354  42.9986 155.1398 0001673 270.4796  32.4407 15.89795106  2675
STARLINK-36477          
1 67355U 26003X   26018.91670139 -.01519765  00000+0 -57382-2 0  9992
2 67355  42.9986 155.1502 0001684 277.7732  21.1497 15.89721499  2662
STARLINK-36429          
1 67356U 26003Y   26018.91670139 -.01568821  00000+0 -57969-2 0  9991
2 67356  42.9987 155.1449 0001702 276.8144  24.1523 15.89757330  2668
STARLINK-36456          
1 67357U 26003Z   26018.91670139 -.01611880  00000+0 -59572-2 0  9998
2 67357  42.9985 155.1337 0001574 278.6453  26.6285 15.89828627  2674
STARLINK-36466          
1 67358U 26003AA  26018.91670139 -.01630564  00000+0 -60290-2 0  9998
2 67358  42.9986 155.1271 0001559 273.9606  33.8805 15.89851993  2674
STARLINK-36499          
1 67359U 26003AB  26018.91670139 -.01640423  00000+0 -60610-2 0  9990
2 67359  42.9986 155.1218 0001792 276.2287  33.6788 15.89879939  2674
STARLINK-36469          
1 67360U 26003AC  26018.91670139 -.01651922  00000+0 -61041-2 0  9997
2 67360  42.9985 155.1155 0001768 275.7158  36.7167 15.89898199  2673
STARLINK-35306          
1 67361U 26003AD  26018.91670139 -.01652377  00000+0 -60986-2 0  9990
2 67361  42.9983 155.1103 0001715 276.4982  37.9289 15.89922732  2613
